OBJECT_NAME,OBJECT_ID,EPOCH,MEAN_MOTION,ECCENTRICITY,INCLINATION,RA_OF_ASC_NODE,ARG_OF_PERICENTER,MEAN_ANOMALY,EPHEMERIS_TYPE,CLASSIFICATION_TYPE,NORAD_CAT_ID,ELEMENT_SET_NO,REV_AT_EPOCH,BSTAR,MEAN_MOTION_DOT,MEAN_MOTION_DDOT
DUCHIFAT-1,2014-033M,2026-06-27T02:53:51.999936,15.66663856,.00010124,98.0447,238.6906,103.7667,256.3704,0,U,40021,999,65730,.11663849E-2,.123708E-2,0
NANOSATC-BR1,2014-033Q,2026-06-27T01:41:46.088448,15.31766053,.00050752,98.0720,211.3356,138.8301,221.3322,0,U,40024,999,65549,.58278837E-3,.17817E-3,0
QB50P1,2014-033R,2026-06-27T07:10:49.850112,15.18409172,.00088622,98.0962,190.1548,179.4885,180.6358,0,U,40025,999,65456,.42669053E-3,.8713E-4,0
DTUSAT-2,2014-033W,2026-06-27T06:38:27.756096,15.15140196,.00076444,98.0863,176.6450,188.0269,172.0840,0,U,40030,999,65421,.42435479E-3,.7888E-4,0
QB50P2,2014-033Y,2026-06-26T22:33:24.164928,15.15279708,.0008808,98.0751,175.4276,134.4942,225.7010,0,U,40032,999,65414,.42349E-3,.7905E-4,0
PERSEUS-M1,2014-033AF,2026-06-27T01:42:53.874432,14.95665219,.00098037,97.9648,122.3656,264.1554,95.8549,0,U,40039,999,65211,.17656074E-3,.1904E-4,0
POLYITAN-1,2014-033AJ,2026-06-27T00:52:25.228704,15.33595602,.00088648,98.0939,205.2302,114.7934,245.4230,0,U,40042,999,65510,.62898095E-3,.20395E-3,0
TIGRISAT,2014-033AK,2026-06-27T03:42:24.869664,14.85196626,.00500936,97.7841,327.9382,43.2551,317.2581,0,U,40043,999,64710,.21811682E-3,.1856E-4,0
CANX-4,2014-034C,2026-06-27T05:12:17.371872,14.81281845,.00123943,98.3111,53.8976,345.1677,14.9169,0,U,40055,999,64601,.12805565E-3,.942E-5,0
CANX-5,2014-034D,2026-06-27T05:09:51.914016,14.81299077,.00123916,98.3113,53.9400,345.4382,14.6471,0,U,40056,999,63682,.12735879E-3,.937E-5,0
GONETS-M 10,2014-036C,2026-06-27T07:02:04.742880,12.42946084,.00229218,82.5116,301.3969,119.4679,240.8692,0,U,40063,999,54350,.90796832E-4,.23E-6,0
METEOR-M 2,2014-037A,2026-06-27T06:45:43.896384,14.21464891,.00062609,98.5111,153.6627,18.9192,341.2217,0,U,40069,999,62075,.19667696E-3,.388E-5,0
DX1,2014-037C,2026-06-27T05:35:49.044192,14.90013670,.00058888,98.3862,140.5445,234.8844,125.1820,0,U,40071,999,64760,.22240577E-3,.2083E-4,0
UKUBE-1,2014-037F,2026-06-26T22:51:09.387072,15.13699275,.0003059,98.4236,182.2506,116.7089,243.4453,0,U,40074,999,65003,.50852E-3,.9082E-4,0
GAOFEN-2,2014-049A,2026-06-27T07:28:30.995040,14.80907224,.00067888,98.0110,242.5089,189.9254,170.1825,0,U,40118,999,64073,.19574829E-4,.98E-6,0
BRITE-PL2 (HEWELIUSZ),2014-049B,2026-06-27T06:45:26.361504,14.94630777,.00153357,97.9107,290.3598,77.6712,282.6224,0,U,40119,999,64295,.16500768E-3,.1731E-4,0
CBERS 4,2014-079A,2026-06-27T06:48:04.846752,14.35511368,.00015373,98.3533,234.7983,54.6682,305.4647,0,U,40336,999,60540,.24280355E-4,.28E-6,0
SMAP,2015-003A,2026-06-27T06:25:50.168064,14.63374974,.00014394,98.1276,185.2196,98.3367,261.7998,0,U,40376,999,60909,.95140966E-4,.445E-5,0
GONETS-M 11,2015-020A,2026-06-27T07:29:21.295392,12.42877684,.00161247,82.4869,24.6822,343.9218,16.1348,0,U,40552,999,50999,-.63370105E-3,-.78E-6,0
GONETS-M 12,2015-020B,2026-06-27T06:51:01.336032,12.42891601,.00148461,82.4903,25.8252,328.7236,31.2959,0,U,40553,999,50998,.55156158E-3,.86E-6,0
GONETS-M 13,2015-020C,2026-06-27T06:13:04.778112,12.42870952,.00131891,82.4865,24.4537,313.4854,46.5128,0,U,40554,999,50995,-.78441169E-4,-.1E-7,0
DMC3-FM1,2015-032A,2026-06-27T05:45:52.485120,14.85748335,.00064296,97.6456,43.0206,32.8816,327.2799,0,U,40715,999,59140,.8579738E-4,.694E-5,0
DMC3-FM2,2015-032B,2026-06-27T06:17:34.291680,14.85757004,.00071113,97.6512,44.6225,37.3402,322.8307,0,U,40716,999,59140,.14283513E-3,.119E-4,0
DMC3-FM3,2015-032C,2026-06-27T06:51:15.815808,14.85744044,.00063488,97.6564,46.4045,37.9458,322.2204,0,U,40717,999,59141,.42122385E-4,.314E-5,0
CARBONITE 1 (CBNT-1),2015-032D,2026-06-27T07:10:57.004032,14.83614530,.00129478,97.6508,355.9421,261.1192,98.8556,0,U,40718,999,59084,.18174636E-3,.145E-4,0
LILACSAT-2,2015-049K,2026-06-27T07:59:33.551808,15.51771421,.00064787,97.4637,215.5614,200.5095,159.5898,0,U,40908,999,59732,.31361584E-3,.18646E-3,0
